CCSDS_OMM_VERS = 2.0
CREATION_DATE  = 
ORIGINATOR     = 

OBJECT_NAME    = STARLINK-35346
OBJECT_ID      = 2025-243C
CENTER_NAME    = EARTH
REF_FRAME      = TEME
TIME_SYSTEM    = UTC
MEAN_ELEMENT_THEORY = SGP/SGP4

EPOCH          = 2025-11-21T22:00:03.000096
MEAN_MOTION    = 15.49298007
ECCENTRICITY   = .0001062
INCLINATION    = 53.1603
RA_OF_ASC_NODE = 26.3595
ARG_OF_PERICENTER = 81.3409
MEAN_ANOMALY   = 3.7283

EPHEMERIS_TYPE = 0
CLASSIFICATION_TYPE = U
NORAD_CAT_ID   = 66179
ELEMENT_SET_NO = 999
REV_AT_EPOCH   = 523
BSTAR          = .31244E-3
MEAN_MOTION_DOT = .16959E-3
MEAN_MOTION_DDOT = 0

CCSDS_OMM_VERS = 2.0
CREATION_DATE  = 
ORIGINATOR     = 

OBJECT_NAME    = STARLINK-35335
OBJECT_ID      = 2025-243D
CENTER_NAME    = EARTH
REF_FRAME      = TEME
TIME_SYSTEM    = UTC
MEAN_ELEMENT_THEORY = SGP/SGP4

EPOCH          = 2025-11-21T22:00:03.000096
MEAN_MOTION    = 15.49361640
ECCENTRICITY   = .0001065
INCLINATION    = 53.1602
RA_OF_ASC_NODE = 26.3646
ARG_OF_PERICENTER = 75.4709
MEAN_ANOMALY   = 7.6634

EPHEMERIS_TYPE = 0
CLASSIFICATION_TYPE = U
NORAD_CAT_ID   = 66180
ELEMENT_SET_NO = 999
REV_AT_EPOCH   = 523
BSTAR          = -.27887E-2
MEAN_MOTION_DOT = -.152833E-2
MEAN_MOTION_DDOT = 0

CCSDS_OMM_VERS = 2.0
CREATION_DATE  = 
ORIGINATOR     = 

OBJECT_NAME    = STARLINK-35342
OBJECT_ID      = 2025-243E
CENTER_NAME    = EARTH
REF_FRAME      = TEME
TIME_SYSTEM    = UTC
MEAN_ELEMENT_THEORY = SGP/SGP4

EPOCH          = 2025-11-21T22:00:03.000096
MEAN_MOTION    = 15.49617762
ECCENTRICITY   = .0000909
INCLINATION    = 53.1600
RA_OF_ASC_NODE = 26.3687
ARG_OF_PERICENTER = 79.0939
MEAN_ANOMALY   = 2.0858

EPHEMERIS_TYPE = 0
CLASSIFICATION_TYPE = U
NORAD_CAT_ID   = 66181
ELEMENT_SET_NO = 999
REV_AT_EPOCH   = 523
BSTAR          = -.18715E-1
MEAN_MOTION_DOT = -.963858E-2
MEAN_MOTION_DDOT = 0

CCSDS_OMM_VERS = 2.0
CREATION_DATE  = 
ORIGINATOR     = 

OBJECT_NAME    = STARLINK-35333
OBJECT_ID      = 2025-243F
CENTER_NAME    = EARTH
REF_FRAME      = TEME
TIME_SYSTEM    = UTC
MEAN_ELEMENT_THEORY = SGP/SGP4

EPOCH          = 2025-11-21T22:00:03.000096
MEAN_MOTION    = 15.47580743
ECCENTRICITY   = .0001263
INCLINATION    = 53.1602
RA_OF_ASC_NODE = 26.3745
ARG_OF_PERICENTER = 65.4755
MEAN_ANOMALY   = 12.6118

EPHEMERIS_TYPE = 0
CLASSIFICATION_TYPE = U
NORAD_CAT_ID   = 66182
ELEMENT_SET_NO = 999
REV_AT_EPOCH   = 518
BSTAR          = -.44739E-1
MEAN_MOTION_DOT = -.2081E-1
MEAN_MOTION_DDOT = 0

CCSDS_OMM_VERS = 2.0
CREATION_DATE  = 
ORIGINATOR     = 

OBJECT_NAME    = STARLINK-35310
OBJECT_ID      = 2025-243G
CENTER_NAME    = EARTH
REF_FRAME      = TEME
TIME_SYSTEM    = UTC
MEAN_ELEMENT_THEORY = SGP/SGP4

EPOCH          = 2025-11-21T22:00:03.000096
MEAN_MOTION    = 15.48776761
ECCENTRICITY   = .0001226
INCLINATION    = 53.1605
RA_OF_ASC_NODE = 26.3770
ARG_OF_PERICENTER = 76.4380
MEAN_ANOMALY   = 0.8406

EPHEMERIS_TYPE = 0
CLASSIFICATION_TYPE = U
NORAD_CAT_ID   = 66183
ELEMENT_SET_NO = 999
REV_AT_EPOCH   = 529
BSTAR          = -.42255E-1
MEAN_MOTION_DOT = -.2053492E-1
MEAN_MOTION_DDOT = 0

CCSDS_OMM_VERS = 2.0
CREATION_DATE  = 
ORIGINATOR     = 

OBJECT_NAME    = STARLINK-35317
OBJECT_ID      = 2025-243H
CENTER_NAME    = EARTH
REF_FRAME      = TEME
TIME_SYSTEM    = UTC
MEAN_ELEMENT_THEORY = SGP/SGP4

EPOCH          = 2025-11-21T22:00:03.000096
MEAN_MOTION    = 15.49265603
ECCENTRICITY   = .0001098
INCLINATION    = 53.1601
RA_OF_ASC_NODE = 26.4168
ARG_OF_PERICENTER = 81.3250
MEAN_ANOMALY   = 336.9205

EPHEMERIS_TYPE = 0
CLASSIFICATION_TYPE = U
NORAD_CAT_ID   = 66184
ELEMENT_SET_NO = 999
REV_AT_EPOCH   = 523
BSTAR          = .88823E-3
MEAN_MOTION_DOT = .49187E-3
MEAN_MOTION_DDOT = 0

CCSDS_OMM_VERS = 2.0
CREATION_DATE  = 
ORIGINATOR     = 

OBJECT_NAME    = STARLINK-35377
OBJECT_ID      = 2025-243J
CENTER_NAME    = EARTH
REF_FRAME      = TEME
TIME_SYSTEM    = UTC
MEAN_ELEMENT_THEORY = SGP/SGP4

EPOCH          = 2025-11-21T22:00:03.000096
MEAN_MOTION    = 15.49358680
ECCENTRICITY   = .0001056
INCLINATION    = 53.1602
RA_OF_ASC_NODE = 26.4251
ARG_OF_PERICENTER = 79.5777
MEAN_ANOMALY   = 334.8082

EPHEMERIS_TYPE = 0
CLASSIFICATION_TYPE = U
NORAD_CAT_ID   = 66185
ELEMENT_SET_NO = 999
REV_AT_EPOCH   = 529
BSTAR          = -.28084E-2
MEAN_MOTION_DOT = -.153871E-2
MEAN_MOTION_DDOT = 0

CCSDS_OMM_VERS = 2.0
CREATION_DATE  = 
ORIGINATOR     = 

OBJECT_NAME    = STARLINK-35365
OBJECT_ID      = 2025-243K
CENTER_NAME    = EARTH
REF_FRAME      = TEME
TIME_SYSTEM    = UTC
MEAN_ELEMENT_THEORY = SGP/SGP4

EPOCH          = 2025-11-21T22:00:03.000096
MEAN_MOTION    = 15.49252155
ECCENTRICITY   = .0001057
INCLINATION    = 53.1601
RA_OF_ASC_NODE = 26.4331
ARG_OF_PERICENTER = 79.1464
MEAN_ANOMALY   = 331.4352

EPHEMERIS_TYPE = 0
CLASSIFICATION_TYPE = U
NORAD_CAT_ID   = 66186
ELEMENT_SET_NO = 999
REV_AT_EPOCH   = 523
BSTAR          = .12245E-2
MEAN_MOTION_DOT = .68112E-3
MEAN_MOTION_DDOT = 0

CCSDS_OMM_VERS = 2.0
CREATION_DATE  = 
ORIGINATOR     = 

OBJECT_NAME    = STARLINK-35350
OBJECT_ID      = 2025-243L
CENTER_NAME    = EARTH
REF_FRAME      = TEME
TIME_SYSTEM    = UTC
MEAN_ELEMENT_THEORY = SGP/SGP4

EPOCH          = 2025-11-21T22:00:03.000096
MEAN_MOTION    = 15.49712896
ECCENTRICITY   = .000083
INCLINATION    = 53.1602
RA_OF_ASC_NODE = 26.4295
ARG_OF_PERICENTER = 84.6959
MEAN_ANOMALY   = 327.7307

EPHEMERIS_TYPE = 0
CLASSIFICATION_TYPE = U
NORAD_CAT_ID   = 66187
ELEMENT_SET_NO = 999
REV_AT_EPOCH   = 523
BSTAR          = -.34185E-1
MEAN_MOTION_DOT = -.172031E-1
MEAN_MOTION_DDOT = 0

CCSDS_OMM_VERS = 2.0
CREATION_DATE  = 
ORIGINATOR     = 

OBJECT_NAME    = STARLINK-35041
OBJECT_ID      = 2025-243M
CENTER_NAME    = EARTH
REF_FRAME      = TEME
TIME_SYSTEM    = UTC
MEAN_ELEMENT_THEORY = SGP/SGP4

EPOCH          = 2025-11-21T22:00:03.000096
MEAN_MOTION    = 15.49265152
ECCENTRICITY   = .0000986
INCLINATION    = 53.1601
RA_OF_ASC_NODE = 26.4133
ARG_OF_PERICENTER = 81.9707
MEAN_ANOMALY   = 338.1908

EPHEMERIS_TYPE = 0
CLASSIFICATION_TYPE = U
NORAD_CAT_ID   = 66188
ELEMENT_SET_NO = 999
REV_AT_EPOCH   = 528
BSTAR          = .88192E-3
MEAN_MOTION_DOT = .48832E-3
MEAN_MOTION_DDOT = 0

CCSDS_OMM_VERS = 2.0
CREATION_DATE  = 
ORIGINATOR     = 

OBJECT_NAME    = STARLINK-34694
OBJECT_ID      = 2025-243N
CENTER_NAME    = EARTH
REF_FRAME      = TEME
TIME_SYSTEM    = UTC
MEAN_ELEMENT_THEORY = SGP/SGP4

EPOCH          = 2025-11-21T22:00:03.000096
MEAN_MOTION    = 15.49264805
ECCENTRICITY   = .000104
INCLINATION    = 53.1601
RA_OF_ASC_NODE = 26.4052
ARG_OF_PERICENTER = 86.1423
MEAN_ANOMALY   = 337.8554

EPHEMERIS_TYPE = 0
CLASSIFICATION_TYPE = U
NORAD_CAT_ID   = 66189
ELEMENT_SET_NO = 999
REV_AT_EPOCH   = 523
BSTAR          = .86171E-3
MEAN_MOTION_DOT = .47695E-3
MEAN_MOTION_DDOT = 0

CCSDS_OMM_VERS = 2.0
CREATION_DATE  = 
ORIGINATOR     = 

OBJECT_NAME    = STARLINK-34863
OBJECT_ID      = 2025-243P
CENTER_NAME    = EARTH
REF_FRAME      = TEME
TIME_SYSTEM    = UTC
MEAN_ELEMENT_THEORY = SGP/SGP4

EPOCH          = 2025-11-21T22:00:03.000096
MEAN_MOTION    = 15.49265954
ECCENTRICITY   = .0001014
INCLINATION    = 53.1602
RA_OF_ASC_NODE = 26.4203
ARG_OF_PERICENTER = 78.8774
MEAN_ANOMALY   = 337.4504

EPHEMERIS_TYPE = 0
CLASSIFICATION_TYPE = U
NORAD_CAT_ID   = 66190
ELEMENT_SET_NO = 999
REV_AT_EPOCH   = 523
BSTAR          = .86915E-3
MEAN_MOTION_DOT = .48115E-3
MEAN_MOTION_DDOT = 0

