STARLINK-35346          
1 66179U 25243C   25325.91670139  .00016959  00000+0  31244-3 0  9994
2 66179  53.1603  26.3595 0001062  81.3409   3.7283 15.49298007  5231
STARLINK-35335          
1 66180U 25243D   25325.91670139 -.00152833  00000+0 -27887-2 0  9997
2 66180  53.1602  26.3646 0001065  75.4709   7.6634 15.49361640  5236
STARLINK-35342          
1 66181U 25243E   25325.91670139 -.00963858  00000+0 -18715-1 0  9994
2 66181  53.1600  26.3687 0000909  79.0939   2.0858 15.49617762  5237
STARLINK-35333          
1 66182U 25243F   25325.91670139 -.02081000  00000+0 -44739-1 0  9992
2 66182  53.1602  26.3745 0001263  65.4755  12.6118 15.47580743  5180
STARLINK-35310          
1 66183U 25243G   25325.91670139 -.02053492  00000+0 -42255-1 0  9998
2 66183  53.1605  26.3770 0001226  76.4380   0.8406 15.48776761  5296
STARLINK-35317          
1 66184U 25243H   25325.91670139  .00049187  00000+0  88823-3 0  9994
2 66184  53.1601  26.4168 0001098  81.3250 336.9205 15.49265603  5236
STARLINK-35377          
1 66185U 25243J   25325.91670139 -.00153871  00000+0 -28084-2 0  9995
2 66185  53.1602  26.4251 0001056  79.5777 334.8082 15.49358680  5292
STARLINK-35365          
1 66186U 25243K   25325.91670139  .00068112  00000+0  12245-2 0  9999
2 66186  53.1601  26.4331 0001057  79.1464 331.4352 15.49252155  5238
STARLINK-35350          
1 66187U 25243L   25325.91670139 -.01720310  00000+0 -34185-1 0  9994
2 66187  53.1602  26.4295 0000830  84.6959 327.7307 15.49712896  5238
STARLINK-35041          
1 66188U 25243M   25325.91670139  .00048832  00000+0  88192-3 0  9993
2 66188  53.1601  26.4133 0000986  81.9707 338.1908 15.49265152  5288
STARLINK-34694          
1 66189U 25243N   25325.91670139  .00047695  00000+0  86171-3 0  9995
2 66189  53.1601  26.4052 0001040  86.1423 337.8554 15.49264805  5235
STARLINK-34863          
1 66190U 25243P   25325.91670139  .00048115  00000+0  86915-3 0  9991
2 66190  53.1602  26.4203 0001014  78.8774 337.4504 15.49265954  5231
